STARLINK-36817          
1 67882U 26035D   26078.08041407  .00333006  00000+0  16836-2 0  9994
2 67882  97.2883  10.9652 0011307 111.1576 249.0902 15.80613293  5321
STARLINK-36856          
1 67883U 26035E   26078.25002315 -.01758900  00000+0 -12488-1 0  9994
2 67883  97.2862  11.1444 0001768  97.8052 136.0784 15.76759383  5295
STARLINK-36842          
1 67884U 26035F   26078.28551938  .00242606  00000+0  15749-2 0  9990
2 67884  97.2873  11.1485 0001241  92.8828 267.2580 15.75289370  5356
STARLINK-36826          
1 67885U 26035G   26078.25002315  .00007296  00000+0  49735-4 0  9996
2 67885  97.2864  11.1332 0001139  99.8723 109.1176 15.75193852  5292
STARLINK-36390          
1 67886U 26035H   26078.28340116  .00229549  00000+0  14930-2 0  9998
2 67886  97.2871  11.1509 0000986 102.4596 257.6780 15.75281045  5354
STARLINK-36368          
1 67887U 26035J   26078.26725251  .00428388  00000+0  21178-2 0  9998
2 67887  97.2887  11.1701 0000310 338.9131  21.2124 15.80931091  5354
STARLINK-36801          
1 67888U 26035K   26078.26650738  .00165849  00000+0  84842-3 0  9994
2 67888  97.2889  11.1708 0001848  91.3134 268.8346 15.80862126  5351
STARLINK-36372          
1 67889U 26035L   26078.25002315 -.01166966  00000+0 -84429-2 0  9990
2 67889  97.2861  11.1542 0001900  98.3164 168.1463 15.76086295  5292
STARLINK-36363          
1 67890U 26035M   26078.27985149  .00369800  00000+0  23520-2 0  9993
2 67890  97.2880  11.1555 0001948 103.1699 256.9784 15.75409395  5357
STARLINK-36816          
1 67891U 26035N   26078.06532909  .00444002  00000+0  21911-2 0  9993
2 67891  97.2906  10.9815 0001713 101.2508 258.8953 15.80932893  5327
STARLINK-36813          
1 67892U 26035P   26078.25975290  .00481853  00000+0  23592-2 0  9991
2 67892  97.2889  11.1742 0001012   5.2381 354.8897 15.81007485  5352
STARLINK-36803          
1 67893U 26035Q   26078.26425044  .00365857  00000+0  18262-2 0  9993
2 67893  97.2891  11.1726 0000715  88.5669 271.5681 15.80881606  5350
STARLINK-36846          
1 67894U 26035R   26078.28162648  .00276492  00000+0  17854-2 0  9996
2 67894  97.2887  11.1508 0001137  72.6609 287.4781 15.75316911  5354
STARLINK-36866          
1 67895U 26035S   26078.25002315  .00007641  00000+0  52050-4 0  9995
2 67895  97.2871  11.1371 0001485 106.3962 118.5919 15.75191401  5294
STARLINK-36877          
1 67896U 26035T   26078.26349727  .00264375  00000+0  13349-2 0  9993
2 67896  97.2895  11.1732 0000514  82.8356 277.2971 15.80891621  5354
STARLINK-36870          
1 67897U 26035U   26077.75483197  .00505555  00000+0  24641-2 0  9992
2 67897  97.2895  10.6385 0002174 123.9214 236.2262 15.81047299  5271
